{
  "type": "FeatureCollection",
  "features": [
    {
      "type": "Feature",
      "properties": {
        "norad_id": 40069,
        "name": "METEOR-M 2",
        "group": "weather",
        "lat": 45.133913490859555,
        "lon": 164.90493549031822,
        "alt_km": 813.4980471592125,
        "timestamp": "2025-12-25T03:55:55.948680+00:00",
        "meta_object_name": "METEOR-M 2",
        "meta_object_id": "2014-037A",
        "meta_epoch": "2025-12-24T20:32:43.060416",
        "meta_mean_motion": 14.21390892,
        "meta_eccentricity": 0.0005641,
        "meta_inclination": 98.4917,
        "meta_ra_of_asc_node": 335.9763,
        "meta_arg_of_pericenter": 172.1198,
        "meta_mean_anomaly": 188.007,
        "meta_ephemeris_type": 0,
        "meta_classification_type": "U",
        "meta_norad_cat_id": 40069,
        "meta_element_set_no": 999,
        "meta_rev_at_epoch": 59455,
        "meta_bstar": 9.8876e-05,
        "meta_mean_motion_dot": 1.74e-06,
        "meta_mean_motion_ddot": 0,
        "tle_line1": "1 40069U 14037A   25358.85605394  .00000174  00000+0  98876-4 0  9990",
        "tle_line2": "2 40069  98.4917 335.9763 0005641 172.1198 188.0070 14.21390892594551"
      },
      "geometry": {
        "type": "Point",
        "coordinates": [
          164.90493549031822,
          45.133913490859555
        ]
      }
    },
    {
      "type": "Feature",
      "properties": {
        "norad_id": 40267,
        "name": "HIMAWARI-8",
        "group": "weather",
        "lat": 0.008647493097276597,
        "lon": -66.42925729161986,
        "alt_km": 35782.42164815468,
        "timestamp": "2025-12-25T03:55:55.948693+00:00",
        "meta_object_name": "HIMAWARI-8",
        "meta_object_id": "2014-060A",
        "meta_epoch": "2025-12-24T18:08:34.454976",
        "meta_mean_motion": 1.00271452,
        "meta_eccentricity": 9.16e-05,
        "meta_inclination": 0.0435,
        "meta_ra_of_asc_node": 201.9035,
        "meta_arg_of_pericenter": 102.9917,
        "meta_mean_anomaly": 201.4431,
        "meta_ephemeris_type": 0,
        "meta_classification_type": "U",
        "meta_norad_cat_id": 40267,
        "meta_element_set_no": 999,
        "meta_rev_at_epoch": 4101,
        "meta_bstar": 0,
        "meta_mean_motion_dot": -2.54e-06,
        "meta_mean_motion_ddot": 0,
        "tle_line1": "1 40267U 14060A   25358.75595434 -.00000254  00000+0  00000+0 0  9995",
        "tle_line2": "2 40267   0.0435 201.9035 0000916 102.9917 201.4431  1.00271452 41011"
      },
      "geometry": {
        "type": "Point",
        "coordinates": [
          -66.42925729161986,
          0.008647493097276597
        ]
      }
    },
    {
      "type": "Feature",
      "properties": {
        "norad_id": 40367,
        "name": "FENGYUN 2G",
        "group": "weather",
        "lat": 0.23876743474762266,
        "lon": -107.84321025606286,
        "alt_km": 35775.493379837695,
        "timestamp": "2025-12-25T03:55:55.948705+00:00",
        "meta_object_name": "FENGYUN 2G",
        "meta_object_id": "2014-090A",
        "meta_epoch": "2025-12-24T18:42:23.852736",
        "meta_mean_motion": 1.00282174,
        "meta_eccentricity": 0.0001828,
        "meta_inclination": 5.1959,
        "meta_ra_of_asc_node": 74.9486,
        "meta_arg_of_pericenter": 172.5748,
        "meta_mean_anomaly": 225.8449,
        "meta_ephemeris_type": 0,
        "meta_classification_type": "U",
        "meta_norad_cat_id": 40367,
        "meta_element_set_no": 999,
        "meta_rev_at_epoch": 4025,
        "meta_bstar": 0,
        "meta_mean_motion_dot": -2.82e-06,
        "meta_mean_motion_ddot": 0,
        "tle_line1": "1 40367U 14090A   25358.77944274 -.00000282  00000+0  00000+0 0  9992",
        "tle_line2": "2 40367   5.1959  74.9486 0001828 172.5748 225.8449  1.00282174 40252"
      },
      "geometry": {
        "type": "Point",
        "coordinates": [
          -107.84321025606286,
          0.23876743474762266
        ]
      }
    },
    {
      "type": "Feature",
      "properties": {
        "norad_id": 40732,
        "name": "METEOSAT-11 (MSG-4)",
        "group": "weather",
        "lat": 2.7794516958055477,
        "lon": 162.0845346066667,
        "alt_km": 35783.76476290102,
        "timestamp": "2025-12-25T03:55:55.948717+00:00",
        "meta_object_name": "METEOSAT-11 (MSG-4)",
        "meta_object_id": "2015-034A",
        "meta_epoch": "2025-12-24T16:34:06.138048",
        "meta_mean_motion": 1.00271233,
        "meta_eccentricity": 7.24e-05,
        "meta_inclination": 2.7663,
        "meta_ra_of_asc_node": 71.9688,
        "meta_arg_of_pericenter": 136.9806,
        "meta_mean_anomaly": 142.2216,
        "meta_ephemeris_type": 0,
        "meta_classification_type": "U",
        "meta_norad_cat_id": 40732,
        "meta_element_set_no": 999,
        "meta_rev_at_epoch": 546,
        "meta_bstar": 0,
        "meta_mean_motion_dot": 8.1e-07,
        "meta_mean_motion_ddot": 0,
        "tle_line1": "1 40732U 15034A   25358.69034882  .00000081  00000+0  00000+0 0  9999",
        "tle_line2": "2 40732   2.7663  71.9688 0000724 136.9806 142.2216  1.00271233  5469"
      },
      "geometry": {
        "type": "Point",
        "coordinates": [
          162.0845346066667,
          2.7794516958055477
        ]
      }
    },
    {
      "type": "Feature",
      "properties": {
        "norad_id": 41105,
        "name": "ELEKTRO-L 2",
        "group": "weather",
        "lat": 5.718987834075668,
        "lon": 138.28738033920337,
        "alt_km": 35797.207293293875,
        "timestamp": "2025-12-25T03:55:55.948729+00:00",
        "meta_object_name": "ELEKTRO-L 2",
        "meta_object_id": "2015-074A",
        "meta_epoch": "2025-12-23T23:20:08.306304",
        "meta_mean_motion": 1.0027219,
        "meta_eccentricity": 0.00035263,
        "meta_inclination": 6.2522,
        "meta_ra_of_asc_node": 72.6944,
        "meta_arg_of_pericenter": 208.9668,
        "meta_mean_anomaly": 146.6578,
        "meta_ephemeris_type": 0,
        "meta_classification_type": "U",
        "meta_norad_cat_id": 41105,
        "meta_element_set_no": 999,
        "meta_rev_at_epoch": 3674,
        "meta_bstar": 0,
        "meta_mean_motion_dot": -9.8e-07,
        "meta_mean_motion_ddot": 0,
        "tle_line1": "1 41105U 15074A   25357.97231836 -.00000098  00000+0  00000+0 0  9995",
        "tle_line2": "2 41105   6.2522  72.6944 0003526 208.9668 146.6578  1.00272190 36746"
      },
      "geometry": {
        "type": "Point",
        "coordinates": [
          138.28738033920337,
          5.718987834075668
        ]
      }
    },
    {
      "type": "Feature",
      "properties": {
        "norad_id": 41752,
        "name": "INSAT-3DR",
        "group": "weather",
        "lat": 0.06492210266437622,
        "lon": -133.22272712817553,
        "alt_km": 35743.55972447177,
        "timestamp": "2025-12-25T03:55:55.948742+00:00",
        "meta_object_name": "INSAT-3DR",
        "meta_object_id": "2016-054A",
        "meta_epoch": "2025-12-24T15:09:51.705216",
        "meta_mean_motion": 1.00271379,
        "meta_eccentricity": 0.0014264,
        "meta_inclination": 0.1198,
        "meta_ra_of_asc_node": 86.2568,
        "meta_arg_of_pericenter": 185.6475,
        "meta_mean_anomaly": 122.9543,
        "meta_ephemeris_type": 0,
        "meta_classification_type": "U",
        "meta_norad_cat_id": 41752,
        "meta_element_set_no": 999,
        "meta_rev_at_epoch": 3406,
        "meta_bstar": 0,
        "meta_mean_motion_dot": -5.6e-07,
        "meta_mean_motion_ddot": 0,
        "tle_line1": "1 41752U 16054A   25358.63184844 -.00000056  00000+0  00000+0 0  9996",
        "tle_line2": "2 41752   0.1198  86.2568 0014264 185.6475 122.9543  1.00271379 34067"
      },
      "geometry": {
        "type": "Point",
        "coordinates": [
          -133.22272712817553,
          0.06492210266437622
        ]
      }
    },
    {
      "type": "Feature",
      "properties": {
        "norad_id": 41836,
        "name": "HIMAWARI-9",
        "group": "weather",
        "lat": -0.03788163278493345,
        "lon": -66.3264332981014,
        "alt_km": 35780.873981398145,
        "timestamp": "2025-12-25T03:55:55.948755+00:00",
        "meta_object_name": "HIMAWARI-9",
        "meta_object_id": "2016-064A",
        "meta_epoch": "2025-12-23T22:52:38.784288",
        "meta_mean_motion": 1.00271828,
        "meta_eccentricity": 0.00016373,
        "meta_inclination": 0.0175,
        "meta_ra_of_asc_node": 40.3208,
        "meta_arg_of_pericenter": 292.8784,
        "meta_mean_anomaly": 243.4785,
        "meta_ephemeris_type": 0,
        "meta_classification_type": "U",
        "meta_norad_cat_id": 41836,
        "meta_element_set_no": 999,
        "meta_rev_at_epoch": 3345,
        "meta_bstar": 0,
        "meta_mean_motion_dot": 0,
        "meta_mean_motion_ddot": 0,
        "tle_line1": "1 41836U 16064A   25357.95322667  .00000000  00000+0  00000+0 0  9999",
        "tle_line2": "2 41836   0.0175  40.3208 0001637 292.8784 243.4785  1.00271828 33458"
      },
      "geometry": {
        "type": "Point",
        "coordinates": [
          -66.3264332981014,
          -0.03788163278493345
        ]
      }
    }
  ]
}